{"type": "FeatureCollection", "features": [ {"type": "Feature", "properties": {"norad_id": 43437, "name": "SENTINEL-3B", "group": "resource", "lat": 10.140660864538704, "lon": -115.79817627968941, "alt_km": 803.9542861459277, "timestamp": "2025-12-23T14:49:08.987271+00:00", "meta": {"OBJECT_NAME": "SENTINEL-3B", "OBJECT_ID": "2018-039A", "EPOCH": "2025-12-23T03:55:41.260800", "MEAN_MOTION": 14.26737963, "ECCENTRICITY": 0.00016141, "INCLINATION": 98.6253, "RA_OF_ASC_NODE": 62.199, "ARG_OF_PERICENTER": 91.6163, "MEAN_ANOMALY": 268.5202, "EPHEMERIS_TYPE": 0, "CLASSIFICATION_TYPE": "U", "NORAD_CAT_ID": 43437, "ELEMENT_SET_NO": 999, "REV_AT_EPOCH": 39902, "BSTAR": 7.7590602e-05, "MEAN_MOTION_DOT": 1.44e-06, "MEAN_MOTION_DDOT": 0}, "tle": {"line1": "1 43437U 18039A   25357.16367200  .00000144  00000+0  77591-4 0  9990", "line2": "2 43437  98.6253  62.1990 0001614  91.6163 268.5202 14.26737963399027"}}, "geometry": {"type": "Point", "coordinates": [-115.79817627968941, 10.140660864538704]}}, {"type": "Feature", "properties": {"norad_id": 43461, "name": "GAOFEN-5 01", "group": "resource", "lat": 35.10508656266172, "lon": -45.21134640742001, "alt_km": 689.7112395080485, "timestamp": "2025-12-23T14:49:08.987283+00:00", "meta": {"OBJECT_NAME": "GAOFEN-5 01", "OBJECT_ID": "2018-043A", "EPOCH": "2025-12-22T22:12:48.981024", "MEAN_MOTION": 14.60420499, "ECCENTRICITY": 5.17e-05, "INCLINATION": 98.4342, "RA_OF_ASC_NODE": 320.0714, "ARG_OF_PERICENTER": 264.8511, "MEAN_ANOMALY": 95.263, "EPHEMERIS_TYPE": 0, "CLASSIFICATION_TYPE": "U", "NORAD_CAT_ID": 43461, "ELEMENT_SET_NO": 999, "REV_AT_EPOCH": 40596, "BSTAR": 0.00010514, "MEAN_MOTION_DOT": 4.6e-06, "MEAN_MOTION_DDOT": 0}, "tle": {"line1": "1 43461U 18043A   25356.92556691  .00000460  00000+0  10514-3 0  9991", "line2": "2 43461  98.4342 320.0714 0000517 264.8511  95.2630 14.60420499405965"}}, "geometry": {"type": "Point", "coordinates": [-45.21134640742001, 35.10508656266172]}}, {"type": "Feature", "properties": {"norad_id": 43484, "name": "GAOFEN-6", "group": "resource", "lat": -56.919703169913916, "lon": 73.66968352617573, "alt_km": 647.0627528725445, "timestamp": "2025-12-23T14:49:08.987295+00:00", "meta": {"OBJECT_NAME": "GAOFEN-6", "OBJECT_ID": "2018-048A", "EPOCH": "2025-12-23T06:56:53.460960", "MEAN_MOTION": 14.76584907, "ECCENTRICITY": 0.00126771, "INCLINATION": 97.802, "RA_OF_ASC_NODE": 61.202, "ARG_OF_PERICENTER": 32.4785, "MEAN_ANOMALY": 327.7203, "EPHEMERIS_TYPE": 0, "CLASSIFICATION_TYPE": "U", "NORAD_CAT_ID": 43484, "ELEMENT_SET_NO": 999, "REV_AT_EPOCH": 40743, "BSTAR": 0.00017089417, "MEAN_MOTION_DOT": 1.145e-05, "MEAN_MOTION_DDOT": 0}, "tle": {"line1": "1 43484U 18048A   25357.28950765  .00001145  00000+0  17089-3 0  9996", "line2": "2 43484  97.8020  61.2020 0012677  32.4785 327.7203 14.76584907407437"}}, "geometry": {"type": "Point", "coordinates": [73.66968352617573, -56.919703169913916]}}, {"type": "Feature", "properties": {"norad_id": 43585, "name": "GAOFEN-11 01", "group": "resource", "lat": 73.2236705917489, "lon": 35.83791219355772, "alt_km": 413.7857323123535, "timestamp": "2025-12-23T14:49:08.987306+00:00", "meta": {"OBJECT_NAME": "GAOFEN-11 01", "OBJECT_ID": "2018-063A", "EPOCH": "2025-12-23T06:44:52.539360", "MEAN_MOTION": 15.49506079, "ECCENTRICITY": 0.00038857, "INCLINATION": 97.1545, "RA_OF_ASC_NODE": 60.1289, "ARG_OF_PERICENTER": 258.4815, "MEAN_ANOMALY": 101.6001, "EPHEMERIS_TYPE": 0, "CLASSIFICATION_TYPE": "U", "NORAD_CAT_ID": 43585, "ELEMENT_SET_NO": 999, "REV_AT_EPOCH": 41305, "BSTAR": 0.00031065002, "MEAN_MOTION_DOT": 0.00017036, "MEAN_MOTION_DDOT": 0}, "tle": {"line1": "1 43585U 18063A   25357.28116365  .00017036  00000+0  31065-3 0  9991", "line2": "2 43585  97.1545  60.1289 0003885 258.4815 101.6001 15.49506079413059"}}, "geometry": {"type": "Point", "coordinates": [35.83791219355772, 73.2236705917489]}}, {"type": "Feature", "properties": {"norad_id": 43613, "name": "ICESAT-2", "group": "resource", "lat": 63.1410502803983, "lon": -120.29173701069473, "alt_km": 473.5726554292796, "timestamp": "2025-12-23T14:49:08.987319+00:00", "meta": {"OBJECT_NAME": "ICESAT-2", "OBJECT_ID": "2018-070A", "EPOCH": "2025-12-23T05:06:53.243136", "MEAN_MOTION": 15.28299345, "ECCENTRICITY": 0.00031693, "INCLINATION": 92.004, "RA_OF_ASC_NODE": 243.5639, "ARG_OF_PERICENTER": 119.1581, "MEAN_ANOMALY": 240.9986, "EPHEMERIS_TYPE": 0, "CLASSIFICATION_TYPE": "U", "NORAD_CAT_ID": 43613, "ELEMENT_SET_NO": 999, "REV_AT_EPOCH": 40558, "BSTAR": 0.00046502222, "MEAN_MOTION_DOT": 0.0001282, "MEAN_MOTION_DDOT": 0}, "tle": {"line1": "1 43613U 18070A   25357.21311624  .00012820  00000+0  46502-3 0  9997", "line2": "2 43613  92.0040 243.5639 0003169 119.1581 240.9986 15.28299345405589"}}, "geometry": {"type": "Point", "coordinates": [-120.29173701069473, 63.1410502803983]}}, {"type": "Feature", "properties": {"norad_id": 43719, "name": "HYSIS", "group": "resource", "lat": 58.471467144984175, "lon": 47.27503491698677, "alt_km": 627.2454822079162, "timestamp": "2025-12-23T14:49:08.987331+00:00", "meta": {"OBJECT_NAME": "HYSIS", "OBJECT_ID": "2018-096A", "EPOCH": "2025-12-23T08:03:18.921888", "MEAN_MOTION": 14.78671914, "ECCENTRICITY": 9.075e-05, "INCLINATION": 98.0084, "RA_OF_ASC_NODE": 60.2613, "ARG_OF_PERICENTER": 54.4466, "MEAN_ANOMALY": 305.6829, "EPHEMERIS_TYPE": 0, "CLASSIFICATION_TYPE": "U", "NORAD_CAT_ID": 43719, "ELEMENT_SET_NO": 999, "REV_AT_EPOCH": 38143, "BSTAR": 0.00019371977, "MEAN_MOTION_DOT": 1.368e-05, "MEAN_MOTION_DDOT": 0}, "tle": {"line1": "1 43719U 18096A   25357.33563567  .00001368  00000+0  19372-3 0  9990", "line2": "2 43719  98.0084  60.2613 0000907  54.4466 305.6829 14.78671914381438"}}, "geometry": {"type": "Point", "coordinates": [47.27503491698677, 58.471467144984175]}}, {"type": "Feature", "properties": {"norad_id": 43783, "name": "KAZSTSAT", "group": "resource", "lat": 24.429970565919383, "lon": 28.924949653367918, "alt_km": 569.210112650936, "timestamp": "2025-12-23T14:49:08.987342+00:00", "meta": {"OBJECT_NAME": "KAZSTSAT", "OBJECT_ID": "2018-099AB", "EPOCH": "2025-12-23T01:53:46.105440", "MEAN_MOTION": 14.99368841, "ECCENTRICITY": 0.00061477, "INCLINATION": 97.4519, "RA_OF_ASC_NODE": 31.8184, "ARG_OF_PERICENTER": 283.8147, "MEAN_ANOMALY": 76.2392, "EPHEMERIS_TYPE": 0, "CLASSIFICATION_TYPE": "U", "NORAD_CAT_ID": 43783, "ELEMENT_SET_NO": 999, "REV_AT_EPOCH": 38491, "BSTAR": 4.7681769e-05, "MEAN_MOTION_DOT": 5.27e-06, "MEAN_MOTION_DDOT": 0}, "tle": {"line1": "1 43783U 18099AB  25357.07900585  .00000527  00000+0  47682-4 0  9992", "line2": "2 43783  97.4519  31.8184 0006147 283.8147  76.2392 14.99368841384915"}}, "geometry": {"type": "Point", "coordinates": [28.924949653367918, 24.429970565919383]}}, {"type": "Feature", "properties": {"norad_id": 43831, "name": "SAUDISAT 5A", "group": "resource", "lat": 27.61292141249693, "lon": 53.7358615589973, "alt_km": 479.92495159281316, "timestamp": "2025-12-23T14:49:08.987354+00:00", "meta": {"OBJECT_NAME": "SAUDISAT 5A", "OBJECT_ID": "2018-102A", "EPOCH": "2025-12-23T06:49:40.088928", "MEAN_MOTION": 15.25779881, "ECCENTRICITY": 0.00112067, "INCLINATION": 97.3333, "RA_OF_ASC_NODE": 57.2719, "ARG_OF_PERICENTER": 43.6304, "MEAN_ANOMALY": 316.5819, "EPHEMERIS_TYPE": 0, "CLASSIFICATION_TYPE": "U", "NORAD_CAT_ID": 43831, "ELEMENT_SET_NO": 999, "REV_AT_EPOCH": 38883, "BSTAR": 0.00024555488, "MEAN_MOTION_DOT": 6.211e-05, "MEAN_MOTION_DDOT": 0}, "tle": {"line1": "1 43831U 18102A   25357.28449177  .00006211  00000+0  24555-3 0  9998", "line2": "2 43831  97.3333  57.2719 0011206  43.6304 316.5819 15.25779881388836"}}, "geometry": {"type": "Point", "coordinates": [53.7358615589973, 27.61292141249693]}}, {"type": "Feature", "properties": {"norad_id": 43833, "name": "SAUDISAT 5B", "group": "resource", "lat": 81.62360192675628, "lon": -58.506653512439975, "alt_km": 474.63256001418813, "timestamp": "2025-12-23T14:49:08.987366+00:00", "meta": {"OBJECT_NAME": "SAUDISAT 5B", "OBJECT_ID": "2018-102C", "EPOCH": "2025-12-23T08:06:54.413856", "MEAN_MOTION": 15.26127593, "ECCENTRICITY": 0.00119403, "INCLINATION": 97.3429, "RA_OF_ASC_NODE": 60.0822, "ARG_OF_PERICENTER": 45.438, "MEAN_ANOMALY": 314.7831, "EPHEMERIS_TYPE": 0, "CLASSIFICATION_TYPE": "U", "NORAD_CAT_ID": 43833, "ELEMENT_SET_NO": 999, "REV_AT_EPOCH": 38895, "BSTAR": 0.00024751207, "MEAN_MOTION_DOT": 6.329e-05, "MEAN_MOTION_DDOT": 0}, "tle": {"line1": "1 43833U 18102C   25357.33812979  .00006329  00000+0  24751-3 0  9998", "line2": "2 43833  97.3429  60.0822 0011940  45.4380 314.7831 15.26127593388955"}}, "geometry": {"type": "Point", "coordinates": [-58.506653512439975, 81.62360192675628]}}, {"type": "Feature", "properties": {"norad_id": 44622, "name": "GAOFEN-10R", "group": "resource", "lat": 33.31336927154477, "lon": 130.4898295434083, "alt_km": 621.9962226262869, "timestamp": "2025-12-23T14:49:08.987377+00:00", "meta": {"OBJECT_NAME": "GAOFEN-10R", "OBJECT_ID": "2019-066A", "EPOCH": "2025-12-23T07:41:03.067296", "MEAN_MOTION": 14.82826, "ECCENTRICITY": 0.00071421, "INCLINATION": 98.0292, "RA_OF_ASC_NODE": 304.8684, "ARG_OF_PERICENTER": 10.8317, "MEAN_ANOMALY": 349.3048, "EPHEMERIS_TYPE": 0, "CLASSIFICATION_TYPE": "U", "NORAD_CAT_ID": 44622, "ELEMENT_SET_NO": 999, "REV_AT_EPOCH": 33631, "BSTAR": 0.000190975, "MEAN_MOTION_DOT": 1.491e-05, "MEAN_MOTION_DDOT": 0}, "tle": {"line1": "1 44622U 19066A   25357.32017439  .00001491  00000+0  19097-3 0  9994", "line2": "2 44622  98.0292 304.8684 0007142  10.8317 349.3048 14.82826000336315"}}, "geometry": {"type": "Point", "coordinates": [130.4898295434083, 33.31336927154477]}}]}